[{"OBJECT_NAME":"KUIPER-00127","OBJECT_ID":"2025-228K","EPOCH":"2026-03-09T05:07:51.492288","MEAN_MOTION":14.76388152,"ECCENTRICITY":0.00012403,"INCLINATION":51.9017,"RA_OF_ASC_NODE":354.1221,"ARG_OF_PERICENTER":190.3744,"MEAN_ANOMALY":169.7192,"EPHEMERIS_TYPE":0,"CLASSIFICATION_TYPE":"U","NORAD_CAT_ID":65956,"ELEMENT_SET_NO":999,"REV_AT_EPOCH":2328,"BSTAR":0.00054618899,"MEAN_MOTION_DOT":3.617e-5,"MEAN_MOTION_DDOT":0},{"OBJECT_NAME":"FENGYUN 1C DEB","OBJECT_ID":"1999-025MT","EPOCH":"2026-03-09T21:02:02.442624","MEAN_MOTION":14.74130884,"ECCENTRICITY":0.01136959,"INCLINATION":98.7454,"RA_OF_ASC_NODE":163.3635,"ARG_OF_PERICENTER":282.2255,"MEAN_ANOMALY":202.4233,"EPHEMERIS_TYPE":0,"CLASSIFICATION_TYPE":"U","NORAD_CAT_ID":30018,"ELEMENT_SET_NO":999,"REV_AT_EPOCH":1720,"BSTAR":0.00065605178,"MEAN_MOTION_DOT":4.733e-5,"MEAN_MOTION_DDOT":0}]
